{
  "type": "FeatureCollection",
  "features": [
    {
      "type": "Feature",
      "properties": {
        "norad_id": 67232,
        "name": "BLUEBIRD 6",
        "group": "last-30-days",
        "lat": 5.147126654856234,
        "lon": 39.953883899739935,
        "alt_km": 506.9828457417143,
        "timestamp": "2025-12-27T19:21:57.547744+00:00",
        "meta_object_name": "BLUEBIRD 6",
        "meta_object_id": "2025-309A",
        "meta_epoch": "2025-12-26T18:03:01.821888",
        "meta_mean_motion": 15.17699903,
        "meta_eccentricity": 0.00104773,
        "meta_inclination": 53.0002,
        "meta_ra_of_asc_node": 40.8851,
        "meta_arg_of_pericenter": 329.2446,
        "meta_mean_anomaly": 30.7932,
        "meta_ephemeris_type": 0,
        "meta_classification_type": "U",
        "meta_norad_cat_id": 67232,
        "meta_element_set_no": 999,
        "meta_rev_at_epoch": 40,
        "meta_bstar": 7.265072e-05,
        "meta_mean_motion_dot": 1.165e-05,
        "meta_mean_motion_ddot": 0,
        "tle_line1": "1 67232U 25309A   25360.75210442  .00001165  00000+0  72651-4 0  9997",
        "tle_line2": "2 67232  53.0002  40.8851 0010477 329.2446  30.7932 15.17699903   405"
      },
      "geometry": {
        "type": "Point",
        "coordinates": [
          39.953883899739935,
          5.147126654856234
        ]
      }
    },
    {
      "type": "Feature",
      "properties": {
        "norad_id": 67233,
        "name": "LVM3 R/B",
        "group": "last-30-days",
        "lat": 22.16184953169705,
        "lon": 53.83557599280145,
        "alt_km": 499.1304590498112,
        "timestamp": "2025-12-27T19:21:57.547753+00:00",
        "meta_object_name": "LVM3 R/B",
        "meta_object_id": "2025-309B",
        "meta_epoch": "2025-12-26T17:58:57.873216",
        "meta_mean_motion": 15.19340101,
        "meta_eccentricity": 0.0010474,
        "meta_inclination": 52.935,
        "meta_ra_of_asc_node": 40.7629,
        "meta_arg_of_pericenter": 355.6984,
        "meta_mean_anomaly": 4.3917,
        "meta_ephemeris_type": 0,
        "meta_classification_type": "U",
        "meta_norad_cat_id": 67233,
        "meta_element_set_no": 999,
        "meta_rev_at_epoch": 40,
        "meta_bstar": 7.2626686e-05,
        "meta_mean_motion_dot": 1.231e-05,
        "meta_mean_motion_ddot": 0,
        "tle_line1": "1 67233U 25309B   25360.74928094  .00001231  00000+0  72627-4 0  9993",
        "tle_line2": "2 67233  52.9350  40.7629 0010474 355.6984   4.3917 15.19340101   404"
      },
      "geometry": {
        "type": "Point",
        "coordinates": [
          53.83557599280145,
          22.16184953169705
        ]
      }
    },
    {
      "type": "Feature",
      "properties": {
        "norad_id": 67234,
        "name": "2025-310A",
        "group": "last-30-days",
        "lat": 35.383922398547156,
        "lon": -167.766210722116,
        "alt_km": 355.20689154970114,
        "timestamp": "2025-12-27T19:21:57.547762+00:00",
        "meta_object_name": "2025-310A",
        "meta_object_id": "2025-310A",
        "meta_epoch": "2025-12-25T23:19:04.304640",
        "meta_mean_motion": 15.47189508,
        "meta_eccentricity": 0.03058256,
        "meta_inclination": 97.9672,
        "meta_ra_of_asc_node": 4.5015,
        "meta_arg_of_pericenter": 77.7397,
        "meta_mean_anomaly": 285.7915,
        "meta_ephemeris_type": 0,
        "meta_classification_type": "U",
        "meta_norad_cat_id": 67234,
        "meta_element_set_no": 999,
        "meta_rev_at_epoch": 6,
        "meta_bstar": 0.00027304502,
        "meta_mean_motion_dot": 0.00103655,
        "meta_mean_motion_ddot": 2.159366e-06,
        "tle_line1": "1 67234U 25310A   25359.97157760  .00103655  21594-5  27305-3 0  9995",
        "tle_line2": "2 67234  97.9672   4.5015 0305825  77.7397 285.7915 15.47189508    63"
      },
      "geometry": {
        "type": "Point",
        "coordinates": [
          -167.766210722116,
          35.383922398547156
        ]
      }
    },
    {
      "type": "Feature",
      "properties": {
        "norad_id": 67235,
        "name": "2025-310B",
        "group": "last-30-days",
        "lat": 28.734154215932406,
        "lon": -169.0559279929171,
        "alt_km": 383.69137637282347,
        "timestamp": "2025-12-27T19:21:57.547785+00:00",
        "meta_object_name": "2025-310B",
        "meta_object_id": "2025-310B",
        "meta_epoch": "2025-12-26T17:55:41.350368",
        "meta_mean_motion": 15.48206704,
        "meta_eccentricity": 0.03027102,
        "meta_inclination": 97.9613,
        "meta_ra_of_asc_node": 5.3742,
        "meta_arg_of_pericenter": 73.1908,
        "meta_mean_anomaly": 290.2311,
        "meta_ephemeris_type": 0,
        "meta_classification_type": "U",
        "meta_norad_cat_id": 67235,
        "meta_element_set_no": 999,
        "meta_rev_at_epoch": 18,
        "meta_bstar": 0.00024688639,
        "meta_mean_motion_dot": 0.00096045,
        "meta_mean_motion_ddot": 2.167529e-06,
        "tle_line1": "1 67235U 25310B   25360.74700637  .00096045  21675-5  24689-3 0  9996",
        "tle_line2": "2 67235  97.9613   5.3742 0302710  73.1908 290.2311 15.48206704   186"
      },
      "geometry": {
        "type": "Point",
        "coordinates": [
          -169.0559279929171,
          28.734154215932406
        ]
      }
    },
    {
      "type": "Feature",
      "properties": {
        "norad_id": 67246,
        "name": "FENGYUN 4C",
        "group": "last-30-days",
        "lat": 2.110453861866951,
        "lon": -22.119456435917023,
        "alt_km": 35521.29136413227,
        "timestamp": "2025-12-27T19:21:57.547811+00:00",
        "meta_object_name": "FENGYUN 4C",
        "meta_object_id": "2025-312A",
        "meta_epoch": "2025-12-26T21:48:20.798784",
        "meta_mean_motion": 2.27841578,
        "meta_eccentricity": 0.7309751,
        "meta_inclination": 28.4641,
        "meta_ra_of_asc_node": 334.3215,
        "meta_arg_of_pericenter": 179.7824,
        "meta_mean_anomaly": 181.1675,
        "meta_ephemeris_type": 0,
        "meta_classification_type": "U",
        "meta_norad_cat_id": 67246,
        "meta_element_set_no": 999,
        "meta_rev_at_epoch": 1,
        "meta_bstar": 0.0021251,
        "meta_mean_motion_dot": 0.00039214,
        "meta_mean_motion_ddot": 4.1525e-07,
        "tle_line1": "1 67246U 25312A   25360.90857406  .00039214  41525-6  21251-2 0  9998",
        "tle_line2": "2 67246  28.4641 334.3215 7309751 179.7824 181.1675  2.27841578    17"
      },
      "geometry": {
        "type": "Point",
        "coordinates": [
          -22.119456435917023,
          2.110453861866951
        ]
      }
    },
    {
      "type": "Feature",
      "properties": {
        "norad_id": 67247,
        "name": "CZ-3B R/B",
        "group": "last-30-days",
        "lat": 6.760597318487652,
        "lon": -13.366304953027326,
        "alt_km": 31137.63257431213,
        "timestamp": "2025-12-27T19:21:57.547822+00:00",
        "meta_object_name": "CZ-3B R/B",
        "meta_object_id": "2025-312B",
        "meta_epoch": "2025-12-26T21:07:12.000000",
        "meta_mean_motion": 2.38355124,
        "meta_eccentricity": 0.7244185,
        "meta_inclination": 28.477,
        "meta_ra_of_asc_node": 334.381,
        "meta_arg_of_pericenter": 178.91,
        "meta_mean_anomaly": 165.069,
        "meta_ephemeris_type": 0,
        "meta_classification_type": "U",
        "meta_norad_cat_id": 67247,
        "meta_element_set_no": 999,
        "meta_rev_at_epoch": 0,
        "meta_bstar": 0,
        "meta_mean_motion_dot": -2.43e-06,
        "meta_mean_motion_ddot": 4.04557e-07,
        "tle_line1": "1 67247U 25312B   25360.88000000 -.00000243  40456-6  00000+0 0  9995",
        "tle_line2": "2 67247  28.4770 334.3810 7244185 178.9100 165.0690  2.38355124    05"
      },
      "geometry": {
        "type": "Point",
        "coordinates": [
          -13.366304953027326,
          6.760597318487652
        ]
      }
    }
  ]
}